ONEWEB-0616             
1 55157U 23004T   24009.01967738  .00000061  00000+0  12500-3 0  9995
2 55157  87.9209 182.8542 0002329 128.5999 231.5341 13.17647165 50475
ONEWEB-0617             
1 55158U 23004U   24008.91233888  .00000100  00000+0  24548-3 0  9995
2 55158  87.8956 198.0346 0001290  71.5185 288.6084 13.11413686 49170
ONEWEB-0618             
1 55159U 23004V   24008.92807338  .00000494  00000+0  19626-3 0  9991
2 55159  86.9117 150.1379 0015374  85.1149 275.1798 14.26757040 52498
ONEWEB-0619             
1 55160U 23004W   24008.89943468 -.00000008  00000+0 -54487-4 0  9992
2 55160  87.9204 182.8538 0001215 121.6516 238.4734 13.17648351 50358
ONEWEB-0620             
1 55161U 23004X   24008.90748163  .00000291  00000+0  78609-3 0  9993
2 55161  87.8958 198.0415 0001568  69.0283 291.1013 13.11414376 49147
ONEWEB-0621             
1 55162U 23004Y   24009.08602780 -.00000492  00000+0 -14238-2 0  9990
2 55162  87.8955 197.9801 0001051  98.5003 261.6244 13.11417375 49179
ONEWEB-0622             
1 55163U 23004Z   24008.93992530 -.00000594  00000+0 -17116-2 0  9990
2 55163  87.8956 198.0228 0001266  50.2963 309.8276 13.11417290 49114
ONEWEB-0623             
1 55164U 23004AA  24008.89469859  .00000009  00000+0 -10920-4 0  9997
2 55164  87.9208 182.9081 0000953  60.1768 299.9458 13.17649792 50348
